[{"OBJECT_NAME":"STARLINK-36937","OBJECT_ID":"2026-044N","EPOCH":"2026-03-20T02:00:03.000384","MEAN_MOTION":15.8086399,"ECCENTRICITY":7.74e-5,"INCLINATION":97.2834,"RA_OF_ASC_NODE":39.7444,"ARG_OF_PERICENTER":122.0915,"MEAN_ANOMALY":353.2218,"EPHEMERIS_TYPE":0,"CLASSIFICATION_TYPE":"U","NORAD_CAT_ID":68113,"ELEMENT_SET_NO":999,"REV_AT_EPOCH":302,"BSTAR":-0.00055182,"MEAN_MOTION_DOT":-0.00104806,"MEAN_MOTION_DDOT":0},{"OBJECT_NAME":"STARLINK-36229","OBJECT_ID":"2026-044P","EPOCH":"2026-03-20T02:00:03.000384","MEAN_MOTION":15.80826011,"ECCENTRICITY":8.98e-5,"INCLINATION":97.2831,"RA_OF_ASC_NODE":39.7416,"ARG_OF_PERICENTER":111.6811,"MEAN_ANOMALY":359.3799,"EPHEMERIS_TYPE":0,"CLASSIFICATION_TYPE":"U","NORAD_CAT_ID":68114,"ELEMENT_SET_NO":999,"REV_AT_EPOCH":307,"BSTAR":-0.00020511,"MEAN_MOTION_DOT":-0.0003927,"MEAN_MOTION_DDOT":0},{"OBJECT_NAME":"STARLINK-36392","OBJECT_ID":"2026-044Q","EPOCH":"2026-03-20T02:00:03.000384","MEAN_MOTION":15.80907106,"ECCENTRICITY":0.0001091,"INCLINATION":97.2832,"RA_OF_ASC_NODE":39.7461,"ARG_OF_PERICENTER":98.6452,"MEAN_ANOMALY":20.9328,"EPHEMERIS_TYPE":0,"CLASSIFICATION_TYPE":"U","NORAD_CAT_ID":68115,"ELEMENT_SET_NO":999,"REV_AT_EPOCH":307,"BSTAR":-0.00099477,"MEAN_MOTION_DOT":-0.00187431,"MEAN_MOTION_DDOT":0},{"OBJECT_NAME":"STARLINK-36805","OBJECT_ID":"2026-044R","EPOCH":"2026-03-20T02:00:03.000384","MEAN_MOTION":15.80905696,"ECCENTRICITY":8.78e-5,"INCLINATION":97.2831,"RA_OF_ASC_NODE":39.7475,"ARG_OF_PERICENTER":94.0991,"MEAN_ANOMALY":29.7508,"EPHEMERIS_TYPE":0,"CLASSIFICATION_TYPE":"U","NORAD_CAT_ID":68116,"ELEMENT_SET_NO":999,"REV_AT_EPOCH":307,"BSTAR":-0.00095022,"MEAN_MOTION_DOT":-0.00179193,"MEAN_MOTION_DDOT":0},{"OBJECT_NAME":"STARLINK-36844","OBJECT_ID":"2026-044S","EPOCH":"2026-03-20T02:00:03.000384","MEAN_MOTION":15.80957477,"ECCENTRICITY":0.0001252,"INCLINATION":97.2826,"RA_OF_ASC_NODE":39.7491,"ARG_OF_PERICENTER":92.4608,"MEAN_ANOMALY":35.6351,"EPHEMERIS_TYPE":0,"CLASSIFICATION_TYPE":"U","NORAD_CAT_ID":68117,"ELEMENT_SET_NO":999,"REV_AT_EPOCH":302,"BSTAR":-0.001295,"MEAN_MOTION_DOT":-0.00242994,"MEAN_MOTION_DDOT":0},{"OBJECT_NAME":"STARLINK-36789","OBJECT_ID":"2026-044T","EPOCH":"2026-03-20T02:00:03.000384","MEAN_MOTION":15.80823856,"ECCENTRICITY":8.61e-5,"INCLINATION":97.2827,"RA_OF_ASC_NODE":39.751,"ARG_OF_PERICENTER":123.2851,"MEAN_ANOMALY":9.1418,"EPHEMERIS_TYPE":0,"CLASSIFICATION_TYPE":"U","NORAD_CAT_ID":68118,"ELEMENT_SET_NO":999,"REV_AT_EPOCH":302,"BSTAR":-0.00019443,"MEAN_MOTION_DOT":-0.00037238,"MEAN_MOTION_DDOT":0},{"OBJECT_NAME":"STARLINK-36850","OBJECT_ID":"2026-044U","EPOCH":"2026-03-20T02:00:03.000384","MEAN_MOTION":15.80889134,"ECCENTRICITY":0.0001384,"INCLINATION":97.2824,"RA_OF_ASC_NODE":39.7527,"ARG_OF_PERICENTER":97.6213,"MEAN_ANOMALY":39.0595,"EPHEMERIS_TYPE":0,"CLASSIFICATION_TYPE":"U","NORAD_CAT_ID":68119,"ELEMENT_SET_NO":999,"REV_AT_EPOCH":302,"BSTAR":-0.00081546,"MEAN_MOTION_DOT":-0.00154134,"MEAN_MOTION_DDOT":0},{"OBJECT_NAME":"STARLINK-36868","OBJECT_ID":"2026-044V","EPOCH":"2026-03-20T02:00:03.000384","MEAN_MOTION":15.80888918,"ECCENTRICITY":0.0001196,"INCLINATION":97.2821,"RA_OF_ASC_NODE":39.7548,"ARG_OF_PERICENTER":91.3619,"MEAN_ANOMALY":49.5912,"EPHEMERIS_TYPE":0,"CLASSIFICATION_TYPE":"U","NORAD_CAT_ID":68120,"ELEMENT_SET_NO":999,"REV_AT_EPOCH":302,"BSTAR":-0.00074942,"MEAN_MOTION_DOT":-0.00141856,"MEAN_MOTION_DDOT":0},{"OBJECT_NAME":"STARLINK-36855","OBJECT_ID":"2026-044W","EPOCH":"2026-03-20T02:00:03.000384","MEAN_MOTION":15.80912699,"ECCENTRICITY":0.0001264,"INCLINATION":97.2821,"RA_OF_ASC_NODE":39.7567,"ARG_OF_PERICENTER":90.2978,"MEAN_ANOMALY":54.9168,"EPHEMERIS_TYPE":0,"CLASSIFICATION_TYPE":"U","NORAD_CAT_ID":68121,"ELEMENT_SET_NO":999,"REV_AT_EPOCH":302,"BSTAR":-0.0010374,"MEAN_MOTION_DOT":-0.00195336,"MEAN_MOTION_DDOT":0},{"OBJECT_NAME":"STARLINK-36366","OBJECT_ID":"2026-044X","EPOCH":"2026-03-20T02:00:03.000384","MEAN_MOTION":15.80971899,"ECCENTRICITY":0.000106,"INCLINATION":97.2814,"RA_OF_ASC_NODE":39.7581,"ARG_OF_PERICENTER":66.6946,"MEAN_ANOMALY":82.7599,"EPHEMERIS_TYPE":0,"CLASSIFICATION_TYPE":"U","NORAD_CAT_ID":68122,"ELEMENT_SET_NO":999,"REV_AT_EPOCH":307,"BSTAR":-0.0014151,"MEAN_MOTION_DOT":-0.00265011,"MEAN_MOTION_DDOT":0},{"OBJECT_NAME":"STARLINK-36922","OBJECT_ID":"2026-044Y","EPOCH":"2026-03-20T02:00:03.000384","MEAN_MOTION":15.81133266,"ECCENTRICITY":0.0001469,"INCLINATION":97.281,"RA_OF_ASC_NODE":39.7619,"ARG_OF_PERICENTER":90.6761,"MEAN_ANOMALY":67.2428,"EPHEMERIS_TYPE":0,"CLASSIFICATION_TYPE":"U","NORAD_CAT_ID":68123,"ELEMENT_SET_NO":999,"REV_AT_EPOCH":307,"BSTAR":-0.0026989,"MEAN_MOTION_DOT":-0.00496026,"MEAN_MOTION_DDOT":0},{"OBJECT_NAME":"STARLINK-36938","OBJECT_ID":"2026-044Z","EPOCH":"2026-03-20T02:00:03.000384","MEAN_MOTION":15.81271262,"ECCENTRICITY":9.73e-5,"INCLINATION":97.2809,"RA_OF_ASC_NODE":39.7639,"ARG_OF_PERICENTER":82.432,"MEAN_ANOMALY":79.6863,"EPHEMERIS_TYPE":0,"CLASSIFICATION_TYPE":"U","NORAD_CAT_ID":68124,"ELEMENT_SET_NO":999,"REV_AT_EPOCH":307,"BSTAR":-0.0037413,"MEAN_MOTION_DOT":-0.00677758,"MEAN_MOTION_DDOT":0},{"OBJECT_NAME":"STARLINK-36839","OBJECT_ID":"2026-044AA","EPOCH":"2026-03-20T02:00:03.000384","MEAN_MOTION":15.80999723,"ECCENTRICITY":8.99e-5,"INCLINATION":97.2813,"RA_OF_ASC_NODE":39.7606,"ARG_OF_PERICENTER":67.5167,"MEAN_ANOMALY":86.1923,"EPHEMERIS_TYPE":0,"CLASSIFICATION_TYPE":"U","NORAD_CAT_ID":68125,"ELEMENT_SET_NO":999,"REV_AT_EPOCH":302,"BSTAR":-0.0015728,"MEAN_MOTION_DOT":-0.00293938,"MEAN_MOTION_DDOT":0},{"OBJECT_NAME":"ECHOSTAR 25","OBJECT_ID":"2026-045A","EPOCH":"2026-03-19T02:28:15.624768","MEAN_MOTION":1.79782376,"ECCENTRICITY":0.47476863,"INCLINATION":9.9581,"RA_OF_ASC_NODE":67.2584,"ARG_OF_PERICENTER":180.7477,"MEAN_ANOMALY":178.3967,"EPHEMERIS_TYPE":0,"CLASSIFICATION_TYPE":"U","NORAD_CAT_ID":68126,"ELEMENT_SET_NO":999,"REV_AT_EPOCH":19,"BSTAR":0,"MEAN_MOTION_DOT":-4.7e-7,"MEAN_MOTION_DDOT":0},{"OBJECT_NAME":"ICOR SV","OBJECT_ID":"2026-046A","EPOCH":"2026-03-13T21:49:43.816224","MEAN_MOTION":15.82606913,"ECCENTRICITY":0.0140888,"INCLINATION":123.0797,"RA_OF_ASC_NODE":224.1306,"ARG_OF_PERICENTER":188.2572,"MEAN_ANOMALY":171.617,"EPHEMERIS_TYPE":0,"CLASSIFICATION_TYPE":"U","NORAD_CAT_ID":68127,"ELEMENT_SET_NO":999,"REV_AT_EPOCH":29,"BSTAR":0.0010434,"MEAN_MOTION_DOT":0.00482503,"MEAN_MOTION_DDOT":9.2133e-5},{"OBJECT_NAME":"FIREFLY ALPHA R/B","OBJECT_ID":"2026-046B","EPOCH":"2026-03-20T04:05:32.683488","MEAN_MOTION":15.56500769,"ECCENTRICITY":0.0014402,"INCLINATION":123.093,"RA_OF_ASC_NODE":251.3441,"ARG_OF_PERICENTER":359.6433,"MEAN_ANOMALY":0.4615,"EPHEMERIS_TYPE":0,"CLASSIFICATION_TYPE":"U","NORAD_CAT_ID":68128,"ELEMENT_SET_NO":999,"REV_AT_EPOCH":127,"BSTAR":0.00037311,"MEAN_MOTION_DOT":0.00026586,"MEAN_MOTION_DDOT":0},{"OBJECT_NAME":"GUOWANG GROUP 20 OBJECT A","OBJECT_ID":"2026-047A","EPOCH":"2026-03-19T01:19:59.034432","MEAN_MOTION":14.05638332,"ECCENTRICITY":0.00088996,"INCLINATION":50.0054,"RA_OF_ASC_NODE":32.2608,"ARG_OF_PERICENTER":282.8383,"MEAN_ANOMALY":77.1528,"EPHEMERIS_TYPE":0,"CLASSIFICATION_TYPE":"U","NORAD_CAT_ID":68129,"ELEMENT_SET_NO":999,"REV_AT_EPOCH":88,"BSTAR":2.225374e-6,"MEAN_MOTION_DOT":-1.48e-6,"MEAN_MOTION_DDOT":0}]
