STARLINK-36937          
1 68113U 26044N   26079.08336806 -.00104806  00000+0 -55182-3 0  9997
2 68113  97.2834  39.7444 0000774 122.0915 353.2218 15.80863990  3021
STARLINK-36229          
1 68114U 26044P   26079.08336806 -.00039270  00000+0 -20511-3 0  9998
2 68114  97.2831  39.7416 0000898 111.6811 359.3799 15.80826011  3073
STARLINK-36392          
1 68115U 26044Q   26079.08336806 -.00187431  00000+0 -99477-3 0  9999
2 68115  97.2832  39.7461 0001091  98.6452  20.9328 15.80907106  3070
STARLINK-36805          
1 68116U 26044R   26079.08336806 -.00179193  00000+0 -95022-3 0  9998
2 68116  97.2831  39.7475 0000878  94.0991  29.7508 15.80905696  3074
STARLINK-36844          
1 68117U 26044S   26079.08336806 -.00242994  00000+0 -12950-2 0  9997
2 68117  97.2826  39.7491 0001252  92.4608  35.6351 15.80957477  3022
STARLINK-36789          
1 68118U 26044T   26079.08336806 -.00037238  00000+0 -19443-3 0  9996
2 68118  97.2827  39.7510 0000861 123.2851   9.1418 15.80823856  3027
STARLINK-36850          
1 68119U 26044U   26079.08336806 -.00154134  00000+0 -81546-3 0  9995
2 68119  97.2824  39.7527 0001384  97.6213  39.0595 15.80889134  3029
STARLINK-36868          
1 68120U 26044V   26079.08336806 -.00141856  00000+0 -74942-3 0  9996
2 68120  97.2821  39.7548 0001196  91.3619  49.5912 15.80888918  3021
STARLINK-36855          
1 68121U 26044W   26079.08336806 -.00195336  00000+0 -10374-2 0  9997
2 68121  97.2821  39.7567 0001264  90.2978  54.9168 15.80912699  3022
STARLINK-36366          
1 68122U 26044X   26079.08336806 -.00265011  00000+0 -14151-2 0  9993
2 68122  97.2814  39.7581 0001060  66.6946  82.7599 15.80971899  3076
STARLINK-36922          
1 68123U 26044Y   26079.08336806 -.00496026  00000+0 -26989-2 0  9998
2 68123  97.2810  39.7619 0001469  90.6761  67.2428 15.81133266  3078
STARLINK-36938          
1 68124U 26044Z   26079.08336806 -.00677758  00000+0 -37413-2 0  9996
2 68124  97.2809  39.7639 0000973  82.4320  79.6863 15.81271262  3077
STARLINK-36839          
1 68125U 26044AA  26079.08336806 -.00293938  00000+0 -15728-2 0  9996
2 68125  97.2813  39.7606 0000899  67.5167  86.1923 15.80999723  3020
ECHOSTAR 25             
1 68126U 26045A   26078.10295862 -.00000047  00000+0  00000+0 0  9996
2 68126   9.9581  67.2584 4747686 180.7477 178.3967  1.79782376   196
ICOR SV                 
1 68127U 26046A   26072.90953491  .00482503  92133-4  10434-2 0  9997
2 68127 123.0797 224.1306 0140888 188.2572 171.6170 15.82606913   290
FIREFLY ALPHA R/B       
1 68128U 26046B   26079.17051717  .00026586  00000+0  37311-3 0  9990
2 68128 123.0930 251.3441 0014402 359.6433   0.4615 15.56500769  1279
GUOWANG GROUP 20 OBJECT*
1 68129U 26047A   26078.05554438 -.00000148  00000+0  22254-5 0  9995
2 68129  50.0054  32.2608 0008899 282.8383  77.1528 14.05638332   882
